[
  {
    "OBJECT_NAME": "STARLINK-31123",
    "OBJECT_ID": "2024-011L",
    "EPOCH": "2024-02-04T22:00:00.999936",
    "MEAN_MOTION": 15.48964138,
    "ECCENTRICITY": 0.0001203,
    "INCLINATION": 53.1598,
    "RA_OF_ASC_NODE": 230.9072,
    "ARG_OF_PERICENTER": 91.2167,
    "MEAN_ANOMALY": 350.8253,
    "EPHEMERIS_TYPE": 0,
    "CLASSIFICATION_TYPE": "U",
    "NORAD_CAT_ID": 58775,
    "ELEMENT_SET_NO": 999,
    "REV_AT_EPOCH": 454,
    "BSTAR": 7.2388e-05,
    "MEAN_MOTION_DOT": 3.533e-05,
    "MEAN_MOTION_DDOT": 0
  },
  {
    "OBJECT_NAME": "STARLINK-31117",
    "OBJECT_ID": "2024-011M",
    "EPOCH": "2024-02-05T06:00:00.999648",
    "MEAN_MOTION": 15.49016049,
    "ECCENTRICITY": 0.000114,
    "INCLINATION": 53.1597,
    "RA_OF_ASC_NODE": 229.3112,
    "ARG_OF_PERICENTER": 96.4823,
    "MEAN_ANOMALY": 46.2198,
    "EPHEMERIS_TYPE": 0,
    "CLASSIFICATION_TYPE": "U",
    "NORAD_CAT_ID": 58776,
    "ELEMENT_SET_NO": 999,
    "REV_AT_EPOCH": 455,
    "BSTAR": -0.0022375,
    "MEAN_MOTION_DOT": -0.00121712,
    "MEAN_MOTION_DDOT": 0
  },
  {
    "OBJECT_NAME": "STARLINK-31132",
    "OBJECT_ID": "2024-011N",
    "EPOCH": "2024-02-04T22:00:00.999936",
    "MEAN_MOTION": 15.48945245,
    "ECCENTRICITY": 0.0001064,
    "INCLINATION": 53.1598,
    "RA_OF_ASC_NODE": 230.9038,
    "ARG_OF_PERICENTER": 105.9682,
    "MEAN_ANOMALY": 337.784,
    "EPHEMERIS_TYPE": 0,
    "CLASSIFICATION_TYPE": "U",
    "NORAD_CAT_ID": 58777,
    "ELEMENT_SET_NO": 999,
    "REV_AT_EPOCH": 465,
    "BSTAR": 0.00056407,
    "MEAN_MOTION_DOT": 0.00030648,
    "MEAN_MOTION_DDOT": 0
  },
  {
    "OBJECT_NAME": "STARLINK-31120",
    "OBJECT_ID": "2024-011P",
    "EPOCH": "2024-02-04T22:00:00.999936",
    "MEAN_MOTION": 15.4896857,
    "ECCENTRICITY": 0.000118,
    "INCLINATION": 53.1598,
    "RA_OF_ASC_NODE": 230.9001,
    "ARG_OF_PERICENTER": 77.1825,
    "MEAN_ANOMALY": 8.2565,
    "EPHEMERIS_TYPE": 0,
    "CLASSIFICATION_TYPE": "U",
    "NORAD_CAT_ID": 58778,
    "ELEMENT_SET_NO": 999,
    "REV_AT_EPOCH": 449,
    "BSTAR": -4.5054e-05,
    "MEAN_MOTION_DOT": -2.921e-05,
    "MEAN_MOTION_DDOT": 0
  },
  {
    "OBJECT_NAME": "STARLINK-31142",
    "OBJECT_ID": "2024-011Q",
    "EPOCH": "2024-02-04T22:00:00.999936",
    "MEAN_MOTION": 15.48960525,
    "ECCENTRICITY": 0.0001177,
    "INCLINATION": 53.1598,
    "RA_OF_ASC_NODE": 230.9015,
    "ARG_OF_PERICENTER": 79.457,
    "MEAN_ANOMALY": 5.129,
    "EPHEMERIS_TYPE": 0,
    "CLASSIFICATION_TYPE": "U",
    "NORAD_CAT_ID": 58779,
    "ELEMENT_SET_NO": 999,
    "REV_AT_EPOCH": 460,
    "BSTAR": 0.00041671,
    "MEAN_MOTION_DOT": 0.00022513,
    "MEAN_MOTION_DDOT": 0
  },
  {
    "OBJECT_NAME": "STARLINK-31103",
    "OBJECT_ID": "2024-011R",
    "EPOCH": "2024-02-05T06:00:00.999648",
    "MEAN_MOTION": 15.48993845,
    "ECCENTRICITY": 0.0001215,
    "INCLINATION": 53.1597,
    "RA_OF_ASC_NODE": 229.3038,
    "ARG_OF_PERICENTER": 116.5096,
    "MEAN_ANOMALY": 29.5913,
    "EPHEMERIS_TYPE": 0,
    "CLASSIFICATION_TYPE": "U",
    "NORAD_CAT_ID": 58780,
    "ELEMENT_SET_NO": 999,
    "REV_AT_EPOCH": 455,
    "BSTAR": -0.00095294,
    "MEAN_MOTION_DOT": -0.0005251,
    "MEAN_MOTION_DDOT": 0
  },
  {
    "OBJECT_NAME": "STARLINK-31099",
    "OBJECT_ID": "2024-011S",
    "EPOCH": "2024-02-04T22:00:00.999936",
    "MEAN_MOTION": 15.48961687,
    "ECCENTRICITY": 0.0001214,
    "INCLINATION": 53.1599,
    "RA_OF_ASC_NODE": 230.8948,
    "ARG_OF_PERICENTER": 91.7983,
    "MEAN_ANOMALY": 356.1924,
    "EPHEMERIS_TYPE": 0,
    "CLASSIFICATION_TYPE": "U",
    "NORAD_CAT_ID": 58781,
    "ELEMENT_SET_NO": 999,
    "REV_AT_EPOCH": 454,
    "BSTAR": 0.00017331,
    "MEAN_MOTION_DOT": 9.086e-05,
    "MEAN_MOTION_DDOT": 0
  },
  {
    "OBJECT_NAME": "STARLINK-31060",
    "OBJECT_ID": "2024-011T",
    "EPOCH": "2024-02-04T22:00:00.999936",
    "MEAN_MOTION": 15.57148799,
    "ECCENTRICITY": 9.31e-05,
    "INCLINATION": 53.1606,
    "RA_OF_ASC_NODE": 230.4232,
    "ARG_OF_PERICENTER": 83.681,
    "MEAN_ANOMALY": 239.2052,
    "EPHEMERIS_TYPE": 0,
    "CLASSIFICATION_TYPE": "U",
    "NORAD_CAT_ID": 58782,
    "ELEMENT_SET_NO": 999,
    "REV_AT_EPOCH": 454,
    "BSTAR": -0.025886,
    "MEAN_MOTION_DOT": -0.01711819,
    "MEAN_MOTION_DDOT": 0
  },
  {
    "OBJECT_NAME": "STARLINK-31047",
    "OBJECT_ID": "2024-011U",
    "EPOCH": "2024-02-05T06:00:00.999648",
    "MEAN_MOTION": 15.49190932,
    "ECCENTRICITY": 7.47e-05,
    "INCLINATION": 53.1605,
    "RA_OF_ASC_NODE": 228.9795,
    "ARG_OF_PERICENTER": 87.0566,
    "MEAN_ANOMALY": 219.3088,
    "EPHEMERIS_TYPE": 0,
    "CLASSIFICATION_TYPE": "U",
    "NORAD_CAT_ID": 58783,
    "ELEMENT_SET_NO": 999,
    "REV_AT_EPOCH": 455,
    "BSTAR": -0.045144,
    "MEAN_MOTION_DOT": -0.0220556,
    "MEAN_MOTION_DDOT": 0
  },
  {
    "OBJECT_NAME": "STARLINK-31039",
    "OBJECT_ID": "2024-011V",
    "EPOCH": "2024-02-05T06:00:00.999648",
    "MEAN_MOTION": 15.48995114,
    "ECCENTRICITY": 0.0001194,
    "INCLINATION": 53.1596,
    "RA_OF_ASC_NODE": 229.2967,
    "ARG_OF_PERICENTER": 91.8392,
    "MEAN_ANOMALY": 57.6631,
    "EPHEMERIS_TYPE": 0,
    "CLASSIFICATION_TYPE": "U",
    "NORAD_CAT_ID": 58784,
    "ELEMENT_SET_NO": 999,
    "REV_AT_EPOCH": 455,
    "BSTAR": -0.00088315,
    "MEAN_MOTION_DOT": -0.00048722,
    "MEAN_MOTION_DDOT": 0
  },
  {
    "OBJECT_NAME": "STARLINK-31034",
    "OBJECT_ID": "2024-011W",
    "EPOCH": "2024-02-05T06:00:00.999648",
    "MEAN_MOTION": 15.56055402,
    "ECCENTRICITY": 0.000117,
    "INCLINATION": 53.1604,
    "RA_OF_ASC_NODE": 228.3642,
    "ARG_OF_PERICENTER": 103.9092,
    "MEAN_ANOMALY": 145.0068,
    "EPHEMERIS_TYPE": 0,
    "CLASSIFICATION_TYPE": "U",
    "NORAD_CAT_ID": 58785,
    "ELEMENT_SET_NO": 999,
    "REV_AT_EPOCH": 456,
    "BSTAR": -0.027822,
    "MEAN_MOTION_DOT": -0.01760129,
    "MEAN_MOTION_DDOT": 0
  },
  {
    "OBJECT_NAME": "STARLINK-31024",
    "OBJECT_ID": "2024-011X",
    "EPOCH": "2024-02-05T06:00:00.999648",
    "MEAN_MOTION": 15.49001874,
    "ECCENTRICITY": 0.0001146,
    "INCLINATION": 53.1595,
    "RA_OF_ASC_NODE": 229.2925,
    "ARG_OF_PERICENTER": 82.8314,
    "MEAN_ANOMALY": 68.3748,
    "EPHEMERIS_TYPE": 0,
    "CLASSIFICATION_TYPE": "U",
    "NORAD_CAT_ID": 58786,
    "ELEMENT_SET_NO": 999,
    "REV_AT_EPOCH": 455,
    "BSTAR": -0.001286,
    "MEAN_MOTION_DOT": -0.00070564,
    "MEAN_MOTION_DDOT": 0
  },
  {
    "OBJECT_NAME": "STARLINK-31189",
    "OBJECT_ID": "2024-012A",
    "EPOCH": "2024-02-05T06:00:00.999648",
    "MEAN_MOTION": 15.55301516,
    "ECCENTRICITY": 0.0001429,
    "INCLINATION": 42.9996,
    "RA_OF_ASC_NODE": 149.9994,
    "ARG_OF_PERICENTER": 271.3067,
    "MEAN_ANOMALY": 192.5671,
    "EPHEMERIS_TYPE": 0,
    "CLASSIFICATION_TYPE": "U",
    "NORAD_CAT_ID": 58787,
    "ELEMENT_SET_NO": 999,
    "REV_AT_EPOCH": 441,
    "BSTAR": -0.02754,
    "MEAN_MOTION_DOT": -0.01713862,
    "MEAN_MOTION_DDOT": 0
  },
  {
    "OBJECT_NAME": "STARLINK-31185",
    "OBJECT_ID": "2024-012B",
    "EPOCH": "2024-02-05T06:00:00.999648",
    "MEAN_MOTION": 15.55299528,
    "ECCENTRICITY": 0.0001278,
    "INCLINATION": 42.9997,
    "RA_OF_ASC_NODE": 149.9974,
    "ARG_OF_PERICENTER": 271.6481,
    "MEAN_ANOMALY": 193.0785,
    "EPHEMERIS_TYPE": 0,
    "CLASSIFICATION_TYPE": "U",
    "NORAD_CAT_ID": 58788,
    "ELEMENT_SET_NO": 999,
    "REV_AT_EPOCH": 456,
    "BSTAR": -0.027541,
    "MEAN_MOTION_DOT": -0.01713725,
    "MEAN_MOTION_DDOT": 0
  }
]