STARLINK-31123          
1 58775U 24011L   24035.91667824  .00003533  00000+0  72388-4 0  9992
2 58775  53.1598 230.9072 0001203  91.2167 350.8253 15.48964138  4548
STARLINK-31117          
1 58776U 24011M   24036.25001157 -.00121712  00000+0 -22375-2 0  9993
2 58776  53.1597 229.3112 0001140  96.4823  46.2198 15.49016049  4556
STARLINK-31132          
1 58777U 24011N   24035.91667824  .00030648  00000+0  56407-3 0  9994
2 58777  53.1598 230.9038 0001064 105.9682 337.7840 15.48945245  4658
STARLINK-31120          
1 58778U 24011P   24035.91667824 -.00002921  00000+0 -45054-4 0  9997
2 58778  53.1598 230.9001 0001180  77.1825   8.2565 15.48968570  4499
STARLINK-31142          
1 58779U 24011Q   24035.91667824  .00022513  00000+0  41671-3 0  9995
2 58779  53.1598 230.9015 0001177  79.4570   5.1290 15.48960525  4609
STARLINK-31103          
1 58780U 24011R   24036.25001157 -.00052510  00000+0 -95294-3 0  9998
2 58780  53.1597 229.3038 0001215 116.5096  29.5913 15.48993845  4553
STARLINK-31099          
1 58781U 24011S   24035.91667824  .00009086  00000+0  17331-3 0  9994
2 58781  53.1599 230.8948 0001214  91.7983 356.1924 15.48961687  4540
STARLINK-31060          
1 58782U 24011T   24035.91667824 -.01711819  00000+0 -25886-1 0  9994
2 58782  53.1606 230.4232 0000931  83.6810 239.2052 15.57148799  4540
STARLINK-31047          
1 58783U 24011U   24036.25001157 -.02205560  00000+0 -45144-1 0  9995
2 58783  53.1605 228.9795 0000747  87.0566 219.3088 15.49190932  4553
STARLINK-31039          
1 58784U 24011V   24036.25001157 -.00048722  00000+0 -88315-3 0  9998
2 58784  53.1596 229.2967 0001194  91.8392  57.6631 15.48995114  4556
STARLINK-31034          
1 58785U 24011W   24036.25001157 -.01760129  00000+0 -27822-1 0  9996
2 58785  53.1604 228.3642 0001170 103.9092 145.0068 15.56055402  4566
STARLINK-31024          
1 58786U 24011X   24036.25001157 -.00070564  00000+0 -12860-2 0  9990
2 58786  53.1595 229.2925 0001146  82.8314  68.3748 15.49001874  4552
STARLINK-31189          
1 58787U 24012A   24036.25001157 -.01713862  00000+0 -27540-1 0  9998
2 58787  42.9996 149.9994 0001429 271.3067 192.5671 15.55301516  4415
STARLINK-31185          
1 58788U 24012B   24036.25001157 -.01713725  00000+0 -27541-1 0  9998
2 58788  42.9997 149.9974 0001278 271.6481 193.0785 15.55299528  4567
